[{"OBJECT_NAME":"ASO-S","OBJECT_ID":"2022-129A","EPOCH":"2026-03-09T22:56:02.207040","MEAN_MOTION":14.52012554,"ECCENTRICITY":0.00151338,"INCLINATION":98.2779,"RA_OF_ASC_NODE":75.4501,"ARG_OF_PERICENTER":41.7143,"MEAN_ANOMALY":318.5203,"EPHEMERIS_TYPE":0,"CLASSIFICATION_TYPE":"U","NORAD_CAT_ID":54029,"ELEMENT_SET_NO":999,"REV_AT_EPOCH":18102,"BSTAR":8.1391382e-5,"MEAN_MOTION_DOT":2.85e-6,"MEAN_MOTION_DDOT":0},{"OBJECT_NAME":"CZ-1 DEB","OBJECT_ID":"1970-034D","EPOCH":"2026-03-09T20:10:39.614592","MEAN_MOTION":13.9655912,"ECCENTRICITY":0.06611872,"INCLINATION":68.3694,"RA_OF_ASC_NODE":240.5133,"ARG_OF_PERICENTER":139.7447,"MEAN_ANOMALY":225.4605,"EPHEMERIS_TYPE":0,"CLASSIFICATION_TYPE":"U","NORAD_CAT_ID":25882,"ELEMENT_SET_NO":999,"REV_AT_EPOCH":30910,"BSTAR":0.0010001113,"MEAN_MOTION_DOT":9.706e-5,"MEAN_MOTION_DDOT":0}]
